QIANFAN-41              
1 62242U 24232F   25262.32849032  .00000073  00000+0  93934-4 0  9998
2 62242  88.9977  49.7047 0015748  77.9176 282.3739 13.50970359 87853
QIANFAN-42              
1 62243U 24232G   25262.33367480  .00000308  00000+0  12699-3 0  9991
2 62243  88.9977  46.9855 0015005   9.2834 350.8633 14.24351430 89351
QIANFAN-43              
1 62244U 24232H   25262.32441223  .00000075  00000+0  96556-4 0  9995
2 62244  88.9982  49.7667 0017310  82.4042 277.9074 13.50967690 56468
QIANFAN-44              
1 62245U 24232J   25262.31204475  .00000063  00000+0  78813-4 0  9994
2 62245  88.9978  49.5800 0015509  79.9926 280.2975 13.50973077 87930
QIANFAN-45              
1 62246U 24232K   25262.35319319  .00000075  00000+0  97758-4 0  9995
2 62246  88.9982  49.7194 0016143  79.5052 280.7917 13.50969819 87867
QIANFAN-46              
1 62247U 24232L   25262.30379927  .00000076  00000+0  98239-4 0  9998
2 62247  88.9979  49.7969 0016270  84.5214 275.7793 13.50970476 87813
QIANFAN-47              
1 62248U 24232M   25262.23388498  .00000064  00000+0  79578-4 0  9996
2 62248  88.9973  49.7403 0016692  83.8807 276.4246 13.50963954 87835
QIANFAN-48              
1 62249U 24232N   25262.34498156  .00000083  00000+0  10933-3 0  9992
2 62249  88.9979  49.7276 0018955  85.7851 274.5466 13.50967709 87851
